[{"OBJECT_NAME":"EDISON-1","OBJECT_ID":"2025-009B","EPOCH":"2026-03-09T19:16:13.822464","MEAN_MOTION":15.29042904,"ECCENTRICITY":0.00043285,"INCLINATION":97.4042,"RA_OF_ASC_NODE":151.6286,"ARG_OF_PERICENTER":306.4185,"MEAN_ANOMALY":53.6655,"EPHEMERIS_TYPE":0,"CLASSIFICATION_TYPE":"U","NORAD_CAT_ID":62610,"ELEMENT_SET_NO":999,"REV_AT_EPOCH":6375,"BSTAR":0.00052814963,"MEAN_MOTION_DOT":0.00014835,"MEAN_MOTION_DDOT":0},{"OBJECT_NAME":"STARLINK-34774","OBJECT_ID":"2025-263A","EPOCH":"2026-03-09T04:13:32.424672","MEAN_MOTION":15.27561475,"ECCENTRICITY":0.000182,"INCLINATION":43.0043,"RA_OF_ASC_NODE":353.3213,"ARG_OF_PERICENTER":252.6515,"MEAN_ANOMALY":107.4138,"EPHEMERIS_TYPE":0,"CLASSIFICATION_TYPE":"U","NORAD_CAT_ID":66485,"ELEMENT_SET_NO":999,"REV_AT_EPOCH":1882,"BSTAR":0.0011355911,"MEAN_MOTION_DOT":0.00031101,"MEAN_MOTION_DDOT":0}]
